OBJECT_NAME,OBJECT_ID,EPOCH,MEAN_MOTION,ECCENTRICITY,INCLINATION,RA_OF_ASC_NODE,ARG_OF_PERICENTER,MEAN_ANOMALY,EPHEMERIS_TYPE,CLASSIFICATION_TYPE,NORAD_CAT_ID,ELEMENT_SET_NO,REV_AT_EPOCH,BSTAR,MEAN_MOTION_DOT,MEAN_MOTION_DDOT
UNKNOWN,,2024-07-03T17:23:46.643424,12.92365576,.0029606,90.2421,350.3450,348.3512,11.6918,0,U,270093,999,21710,.49018336E-3,.14E-5,0
UNKNOWN,,2024-07-06T15:53:16.290240,12.23818262,.01203644,102.5028,159.1642,101.6800,259.7787,0,U,270094,999,20598,.63601929E-3,.26E-6,0
UNKNOWN,,2024-07-02T05:32:30.429600,12.96901206,.00268062,90.2442,355.7229,171.6831,188.4739,0,U,270095,999,21755,.24110572E-2,.703E-5,0
UNKNOWN,,2024-07-06T06:21:38.935872,14.31767467,.00139176,98.6942,195.0767,27.6380,332.5540,0,U,270096,999,24035,.22797369E-3,.565E-5,0
UNKNOWN,,2024-07-06T04:31:13.396800,12.99016039,.00132687,90.2606,3.4887,44.3519,315.8663,0,U,270097,999,21782,.13243192E-2,.4E-5,0
UNKNOWN,,2024-06-28T02:33:52.738560,14.27730427,.01971687,98.2363,312.1824,122.9268,239.1050,0,U,270098,999,23767,.39491339E-2,.11967E-3,0
UNKNOWN,,2024-07-06T22:08:46.578048,12.50955809,.01348701,102.2887,265.9863,321.2196,37.9254,0,U,270099,999,20991,.13238621E-1,.206E-4,0
UNKNOWN,,2024-07-06T10:36:29.484288,14.46575516,.00758553,97.3496,246.3011,56.7568,304.0867,0,U,270100,999,24078,.26409651E-2,.9842E-4,0
UNKNOWN,,2024-07-05T16:42:53.740512,12.38919481,.0094725,102.3051,167.2027,165.1872,195.1998,0,U,270101,999,20843,.1456252E-3,-.27E-6,0
UNKNOWN,,2024-07-06T18:12:36.089856,13.02626243,.00273466,90.2732,15.9589,244.0040,115.8267,0,U,270103,999,21916,.1360509E-2,.433E-5,0
UNKNOWN,,2024-07-05T18:16:44.667840,12.95880474,.00277433,90.2491,359.5142,162.7360,197.4709,0,U,270104,999,21798,.10093021E-2,.294E-5,0
UNKNOWN,,2024-07-06T03:46:23.163456,14.40486895,.01663025,98.1787,338.4600,25.6223,335.3091,0,U,270105,999,23982,.26375227E-2,.9848E-4,0
UNKNOWN,,2024-07-06T14:16:29.175168,12.40323708,.01754636,56.0555,153.5040,124.6536,237.1045,0,U,270106,999,20885,.2297448E-3,-.61E-6,0
UNKNOWN,,2024-07-05T00:46:25.198176,13.05059675,.00223249,90.0442,309.2739,175.1674,184.9671,0,U,270108,999,21939,.45949022E-2,.1496E-4,0
UNKNOWN,,2024-06-15T11:09:48.866688,14.77549389,.00196385,86.3362,235.2795,296.8379,63.0833,0,U,270109,999,24112,.43019353E-2,.30929E-3,0
UNKNOWN,,2024-07-05T17:14:04.713504,12.97960724,.0033698,90.2416,357.0526,95.2078,265.2890,0,U,270110,999,21817,.99342147E-4,.37E-6,0
UNKNOWN,,2024-07-02T19:02:41.566560,14.37830864,.00197569,98.5138,199.0952,253.2860,106.6159,0,U,270111,999,24134,.255836E-3,.729E-5,0
UNKNOWN,,2024-07-05T05:02:09.226464,12.94775440,.00267359,90.2414,349.2425,310.0612,49.8163,0,U,270113,999,21730,.15489796E-2,.44E-5,0
UNKNOWN,,2024-07-02T04:15:30.538656,12.95511621,.00501202,90.2399,353.0315,202.5716,157.3199,0,U,270114,999,21746,.38092853E-3,.115E-5,0
UNKNOWN,,2024-07-04T04:09:02.194848,12.96785768,.00340579,90.2401,354.9670,161.8567,198.3777,0,U,270115,999,21697,.64776497E-3,.194E-5,0
UNKNOWN,,2024-07-04T14:02:47.319360,12.23432531,.01293441,74.0076,289.5405,241.6739,117.1200,0,U,270116,999,20576,.53669495E-3,.44E-6,0
UNKNOWN,,2024-07-07T04:24:50.904864,12.99855582,.00256112,90.2417,345.5134,306.9462,52.9314,0,U,270117,999,21850,.23585608E-2,.716E-5,0
UNKNOWN,,2024-07-07T03:00:35.703072,14.50837530,.00065263,98.6331,332.4827,113.4013,246.7868,0,U,270121,999,24370,.58256389E-3,.225E-4,0
UNKNOWN,,2024-07-05T05:32:39.730560,12.95907963,.00266312,90.2400,356.0527,241.7122,118.1310,0,U,270122,999,21714,.16432229E-2,.474E-5,0
UNKNOWN,,2024-07-05T23:41:35.815776,12.22142852,.08265392,83.2591,288.1141,232.2427,120.0965,0,U,270123,999,20538,.99908796E-2,.321E-4,0
UNKNOWN,,2024-07-07T05:21:56.720160,12.96659377,.00286772,90.2397,357.4281,101.2362,259.1984,0,U,270124,999,21826,.16684756E-2,.487E-5,0
UNKNOWN,,2024-07-02T08:14:30.155712,14.59122126,.00197924,86.3372,213.5167,267.2462,92.6482,0,U,270127,999,24321,.15347593E-2,.7265E-4,0
UNKNOWN,,2024-07-05T17:09:27.375552,12.33731042,.00472051,102.4017,178.3193,105.0232,255.6058,0,U,270128,999,20748,.48356924E-3,.14E-6,0
UNKNOWN,,2024-06-29T04:11:47.839200,12.98142836,.00341308,90.2380,352.7955,174.3108,185.8407,0,U,270129,999,21673,.14509266E-2,.434E-5,0
UNKNOWN,,2024-07-06T22:24:37.940544,14.33795946,.00195839,99.2118,266.2604,358.1954,1.9155,0,U,270130,999,23894,.45048916E-2,.12526E-3,0
UNKNOWN,,2024-07-05T18:55:12.368640,4.52438007,.54202264,63.2164,8.3600,342.1411,4.4803,0,U,270131,999,7616,.10927635E-2,.72E-6,0
UNKNOWN,,2024-07-01T20:27:48.852000,12.78931249,.03517865,63.2074,220.8176,358.6781,1.3248,0,U,270133,999,21473,.12081588E-2,.275E-5,0
UNKNOWN,,2024-07-06T17:11:40.390080,12.29505157,.06665477,66.0636,341.3161,77.7090,289.7669,0,U,270134,999,20684,-.23375658E-3,-.109E-5,0
UNKNOWN,,2024-07-03T12:00:53.715744,13.03965891,.02306041,63.5752,114.0979,345.9708,13.4962,0,U,270135,999,21886,.14973333E-2,.462E-5,0
UNKNOWN,,2024-07-07T04:19:06.752928,13.01611953,.00294421,90.2435,349.2364,53.1098,307.2717,0,U,270136,999,21863,-.36300193E-3,-.104E-5,0
UNKNOWN,,2024-07-03T06:53:36.092256,12.12915321,.03128534,100.9348,15.3164,168.7180,192.1097,0,U,270137,999,20372,.94228028E-3,.69E-6,0
UNKNOWN,,2024-07-05T23:43:34.266720,14.85682083,.00101454,97.8503,273.6508,295.5017,64.5148,0,U,270138,999,24908,.52141703E-3,.4472E-4,0
UNKNOWN,,2024-07-05T07:18:51.788448,12.48643918,.0792829,99.4291,21.0196,105.1844,263.8246,0,U,270140,999,20943,.36362559E-2,.1689E-4,0
UNKNOWN,,2024-07-01T10:07:00.626592,13.67745769,.00438355,99.3397,63.1558,149.2155,211.1575,0,U,270143,999,22945,.43988924E-3,.332E-5,0
UNKNOWN,,2024-07-06T20:13:10.490592,14.44313518,.0019632,86.3094,230.9070,87.1847,273.1601,0,U,270144,999,24184,.12911581E-2,.447E-4,0
UNKNOWN,,2024-07-02T14:16:14.286720,11.59754071,.05632917,102.6083,325.1729,83.2816,283.1948,0,U,270147,999,19396,-.32567642E-1,-.2438E-4,0
UNKNOWN,,2024-07-06T04:32:10.989312,13.05386068,.00305226,90.3041,355.4727,172.2257,187.9348,0,U,270149,999,21857,-.20874872E-2,-.672E-5,0
UNKNOWN,,2024-07-07T05:59:00.073824,12.98465368,.00405287,90.2840,23.9678,62.1186,298.4031,0,U,270152,999,21845,.12422657E-3,.44E-6,0
UNKNOWN,,2024-07-04T11:09:49.079232,12.29189984,.07471228,83.2103,91.5797,96.5739,272.0873,0,U,270153,999,20616,.90456194E-2,.2675E-4,0
UNKNOWN,,2024-07-05T16:49:39.537984,12.95871300,.00293011,90.2400,357.2783,221.4324,138.4574,0,U,270154,999,21757,.17880554E-2,.515E-5,0
UNKNOWN,,2024-07-01T20:39:18.705888,12.54184485,.00807309,101.9625,32.0837,358.3517,1.7278,0,U,270155,999,21043,.43368585E-2,.659E-5,0
UNKNOWN,,2024-07-07T05:56:52.095552,13.03806078,.0017713,90.2475,3.0239,258.9928,100.9204,0,U,270156,999,21804,.29785048E-2,.954E-5,0
UNKNOWN,,2024-07-03T11:02:08.492928,12.74524067,.09714801,65.8261,244.5791,91.5534,279.6813,0,U,270157,999,21333,.46519407E-3,.68E-5,0
UNKNOWN,,2024-07-05T15:16:09.999840,12.21481426,.01350387,74.0030,144.4848,350.1815,9.6585,0,U,270158,999,20555,.3286634E-3,.21E-6,0
UNKNOWN,,2024-06-30T05:20:33.796032,12.81128164,.03191335,62.9564,13.3955,170.5057,190.2163,0,U,270159,999,21482,.32462993E-2,.853E-5,0
UNKNOWN,,2024-07-01T14:37:37.581600,12.13919507,.08739652,83.2716,306.1207,320.0543,33.9244,0,U,270160,999,20276,.36360093E-2,.1154E-4,0
UNKNOWN,,2024-07-01T05:02:00.097440,12.75744658,.00472589,101.0524,173.9088,287.5903,72.0025,0,U,270161,999,21363,.33200444E-2,.672E-5,0
UNKNOWN,,2024-07-07T05:07:28.236000,12.63080211,.09319659,28.8355,28.8744,111.0847,259.1795,0,U,270162,999,21197,.1966666E-2,.2101E-4,0
UNKNOWN,,2024-07-03T17:19:01.238304,12.99569155,.00268688,90.2410,355.3699,1.0623,359.0551,0,U,270164,999,21729,-.54062571E-3,-.154E-5,0
UNKNOWN,,2024-07-06T04:49:05.824704,12.95286171,.00410222,90.2368,356.5950,262.8673,96.7781,0,U,270165,999,21640,.40289589E-4,.18E-6,0
UNKNOWN,,2024-07-06T18:05:41.440704,14.30372634,.00047145,98.7620,194.4627,353.2266,6.8851,0,U,270166,999,24019,.18388027E-3,.433E-5,0
UNKNOWN,,2024-07-01T11:41:30.755328,11.47948172,.07017747,65.7363,266.6471,359.2134,0.7657,0,U,270167,999,19234,-.58929191E-3,-.88E-6,0
UNKNOWN,,2024-07-05T08:41:28.741344,14.30286909,.00798739,86.1966,213.8805,162.5762,197.8202,0,U,270168,999,23971,.1850084E-2,.4987E-4,0
UNKNOWN,,2024-07-02T04:51:34.892352,13.41850175,.02105255,83.0080,151.1142,149.6321,211.7214,0,U,270169,999,22518,.10760819E-2,.702E-5,0
UNKNOWN,,2024-07-02T19:32:48.240672,14.38298129,.00213315,65.0080,19.5127,264.8902,94.9751,0,U,270170,999,24082,.69074441E-3,.2011E-4,0
UNKNOWN,,2024-06-24T19:53:44.390400,11.95541128,.00328332,82.4233,2.5226,310.5299,49.2895,0,U,270171,999,19931,.40739419E-2,.32E-5,0
UNKNOWN,,2024-07-04T12:01:58.113120,14.41962959,.00282986,86.3752,266.3911,100.2889,260.1504,0,U,270172,999,24141,.64781876E-3,.2152E-4,0
UNKNOWN,,2024-07-07T00:19:25.261248,14.78445282,.00029168,86.6083,288.5488,90.5009,269.6546,0,U,270173,999,24648,.49966011E-3,.3666E-4,0
UNKNOWN,,2024-07-04T16:03:05.365440,11.49678921,.0938507,63.4086,326.5124,314.1158,38.6145,0,U,270174,999,19346,-.74716497E-3,-.147E-5,0
UNKNOWN,,2024-07-04T22:10:45.800544,12.19508433,.08362256,83.3261,61.7255,35.2359,330.1159,0,U,270175,999,20480,.38586797E-2,.1226E-4,0
UNKNOWN,,2024-06-29T16:03:28.493856,13.03741086,.00277954,90.2482,340.8655,321.2134,38.6995,0,U,270176,999,21725,.47672392E-2,.1523E-4,0
UNKNOWN,,2024-07-07T01:01:24.877056,12.53215449,.00943077,100.9142,291.3487,257.8287,101.2212,0,U,270177,999,21037,.25597792E-2,.372E-5,0
UNKNOWN,,2024-07-07T05:09:50.726880,14.31170485,.00213222,98.6580,181.8906,83.1377,277.2231,0,U,270178,999,23952,.20804782E-3,.506E-5,0
UNKNOWN,,2024-07-06T05:14:54.796128,14.37247410,.00340759,98.5976,181.4652,127.4082,233.0215,0,U,270179,999,24022,.24966749E-3,.704E-5,0
UNKNOWN,,2024-07-04T12:35:46.759200,14.81526234,.00318497,86.3957,277.5113,303.6115,56.2068,0,U,270180,999,24428,.55095914E-2,.43832E-3,0
UNKNOWN,,2024-06-13T08:47:03.112800,12.87882622,.07071851,72.9899,204.2783,113.9990,253.6736,0,U,270181,999,21321,.32108013E-2,.2453E-4,0
